     2.100          NAVIGATION                              RINEX VERSION / TYPE
fic2rin                                 01/14/2009 02:18:16 PGM / RUN BY / DATE
                                                            END OF HEADER
25 09  1 13  8  0  0.0  .170469749719D-03  .266027200269D-10  .000000000000D+00
     .220000000000D+02  .390937500000D+02  .474948354934D-08  .240022540001D+01
     .197440385818D-05  .117936293827D-01  .724568963051D-06  .515367777824D+04
     .201600000000D+06  .135973095894D-06 -.125064369497D+01 -.447034835815D-07
     .967704455792D+00  .367031250000D+03 -.123824527992D+01 -.841320758672D-08
     .639312344211D-10  .100000000000D+01  .151400000000D+04  .000000000000D+00
     .240000000000D+01  .000000000000D+00 -.745058059692D-08  .220000000000D+02
     .194406000000D+06  .400000000000D+01
26 09  1 13  8  0  0.0  .357022508979D-04  .341060513165D-11  .000000000000D+00
     .820000000000D+02  .113437500000D+03  .368551065917D-08 -.963489630810D+00
     .622496008873D-05  .194257742260D-01  .846944749355D-05  .515364588165D+04
     .201600000000D+06  .206753611565D-06 -.215198217428D+01  .378116965294D-06
     .993170178850D+00  .235968750000D+03  .964936041322D+00 -.785425573271D-08
     .237509893240D-09  .100000000000D+01  .151400000000D+04  .000000000000D+00
     .240000000000D+01  .000000000000D+00 -.605359673500D-08  .820000000000D+02
     .194406000000D+06  .400000000000D+01
27 09  1 13  8  0  0.0  .158920884132D-04  .318323145621D-11  .000000000000D+00
     .560000000000D+02  .214687500000D+02  .468555231492D-08  .173530470810D+01
     .553205609322D-06  .210768714314D-01  .115483999252D-05  .515519959450D+04
     .201600000000D+06  .100582838058D-06 -.121488288489D+01 -.456348061562D-06
     .972363304206D+00  .364000000000D+03 -.166346509635D+01 -.835534803378D-08
     .106433004790D-09  .100000000000D+01  .151400000000D+04  .000000000000D+00
     .240000000000D+01  .000000000000D+00 -.465661287308D-08  .560000000000D+02
     .194406000000D+06  .400000000000D+01
28 09  1 13  8  0  0.0 -.237734057009D-04  .000000000000D+00  .000000000000D+00
     .780000000000D+02 -.136750000000D+03  .436196740774D-08  .118565549766D+01
    -.709667801857D-05  .145126265706D-01  .917352735996D-05  .515364683723D+04
     .201600000000D+06 -.227242708206D-06 -.795625274472D-01 -.298023223877D-07
     .965950253168D+00  .213406250000D+03 -.206685702519D+01 -.824105755884D-08
    -.398945189097D-09  .100000000000D+01  .151400000000D+04  .000000000000D+00
     .340000000000D+01  .000000000000D+00 -.102445483208D-07  .780000000000D+02
     .194406000000D+06  .400000000000D+01
29 09  1 13  8  0  0.0 -.184709206223D-04  .272848410532D-11  .000000000000D+00
     .380000000000D+02  .204375000000D+02  .437625371710D-08 -.297289418232D+01
     .903382897377D-06  .322067469824D-02  .112559646368D-04  .515376096535D+04
     .201600000000D+06 -.316649675369D-07  .961668536257D+00 -.279396772385D-07
     .959742436371D+00  .159656250000D+03 -.134043697616D+01 -.778032408173D-08
     .502163774280D-09  .100000000000D+01  .151400000000D+04  .000000000000D+00
     .240000000000D+01  .000000000000D+00 -.884756445885D-08  .380000000000D+02
     .194406000000D+06  .400000000000D+01
30 09  1 13  8  0  0.0  .119506381452D-03  .238742359215D-11  .000000000000D+00
     .220000000000D+02 -.133781250000D+03  .462483550011D-08  .160862400460D+01
    -.716559588909D-05  .111621789401D-01  .820308923721D-05  .515365983582D+04
     .201600000000D+06 -.875443220139D-07 -.150221476527D+00 -.260770320892D-06
     .951169467249D+00  .216531250000D+03  .141351528892D+01 -.818891252965D-08
    -.286083345091D-09  .100000000000D+01  .151400000000D+04  .000000000000D+00
     .240000000000D+01  .000000000000D+00 -.791624188423D-08  .220000000000D+02
     .194406000000D+06  .400000000000D+01
31 09  1 13  8  0  0.0 -.475118868053D-04 -.147792889038D-11  .000000000000D+00
     .420000000000D+02  .559375000000D+01  .477198448659D-08 -.217640356986D+01
     .499188899994D-06  .713053625077D-02  .385567545891D-06  .515361771011D+04
     .201600000000D+06  .372529029846D-08 -.115859564155D+01  .782310962677D-07
     .970803865718D+00  .378406250000D+03 -.120991171663D+01 -.847535303247D-08
     .639312344211D-10  .100000000000D+01  .151400000000D+04  .000000000000D+00
     .240000000000D+01  .000000000000D+00 -.130385160446D-07  .420000000000D+02
     .194406000000D+06  .400000000000D+01
32 09  1 13  8  0  0.0  .303852371871D-03 -.261479726760D-11  .000000000000D+00
     .880000000000D+02  .334375000000D+01  .426339187310D-08 -.132172713606D+01
     .245869159698D-06  .136554494966D-01  .118911266327D-04  .515366324234D+04
     .201600000000D+06 -.270083546638D-06  .311788799424D+01  .856816768646D-07
     .966243098646D+00  .157562500000D+03 -.121350148792D+01 -.798676125209D-08
    -.544665544649D-09  .100000000000D+01  .151400000000D+04  .000000000000D+00
     .240000000000D+01  .000000000000D+00 -.325962901115D-08  .880000000000D+02
     .194406000000D+06  .400000000000D+01
25 09  1 13  7 59 44.0  .170467421412D-03  .266027200269D-10  .000000000000D+00
     .290000000000D+02  .390937500000D+02  .474948354934D-08  .239789178234D+01
     .197440385818D-05  .117936274037D-01  .724568963051D-06  .515367777824D+04
     .201584000000D+06  .135973095894D-06 -.125064358086D+01 -.447034835815D-07
     .967704466032D+00  .367031250000D+03 -.123824537062D+01 -.841320758672D-08
     .639312344211D-10  .100000000000D+01  .151400000000D+04  .000000000000D+00
     .240000000000D+01  .000000000000D+00 -.745058059692D-08  .290000000000D+02
     .195156000000D+06  .400000000000D+01
 5 09  1 13  7 59 44.0 -.536532606930D-03 -.584350345889D-10  .000000000000D+00
     .250000000000D+02 -.134812500000D+03  .471055335631D-08  .214114646734D+01
    -.717118382454D-05  .937837467063D-02  .724941492081D-05  .515364510918D+04
     .201584000000D+06  .298023223877D-07 -.203295800658D+00 -.162050127983D-06
     .945210467947D+00  .228406250000D+03  .129442598478D+01 -.816069706865D-08
    -.322156276245D-09  .100000000000D+01  .151400000000D+04  .000000000000D+00
     .240000000000D+01  .000000000000D+00 -.419095158577D-08  .250000000000D+02
     .195876000000D+06  .400000000000D+01
16 09  1 13  7 59 44.0  .823456794024D-04 -.261479726760D-11  .000000000000D+00
     .150000000000D+02 -.143687500000D+03  .423981946264D-08  .185453618008D+01
    -.719167292118D-05  .495682307519D-02  .935792922974D-05  .515375341606D+04
     .201584000000D+06  .838190317154D-07 -.879276905184D-01  .800937414169D-07
     .967765874945D+00  .200250000000D+03 -.385921391015D+00 -.800033324599D-08
    -.416803075807D-09  .100000000000D+01  .151400000000D+04  .000000000000D+00
     .240000000000D+01  .000000000000D+00 -.977888703346D-08  .150000000000D+02
     .198726000000D+06  .400000000000D+01
 2 09  1 13  7 59 44.0  .161881092936D-03 -.181898940355D-11  .000000000000D+00
     .110000000000D+02  .116562500000D+02  .551415825825D-08 -.293455991940D+00
     .547617673874D-06  .889886170626D-02  .461190938950D-05  .515359106827D+04
     .201584000000D+06  .108033418655D-06  .197401931054D+01 -.150874257088D-06
     .941548922972D+00  .283156250000D+03  .269932668748D+01 -.867500420589D-08
     .825034365993D-10  .100000000000D+01  .151400000000D+04  .000000000000D+00
     .240000000000D+01  .000000000000D+00 -.172294676304D-07  .110000000000D+02
     .199416000000D+06  .400000000000D+01
28 09  1 13  7 59 44.0 -.237626954913D-04  .000000000000D+00  .000000000000D+00
     .110000000000D+02 -.136750000000D+03  .436089593453D-08  .118332171469D+01
    -.709667801857D-05  .145126306452D-01  .917352735996D-05  .515364683533D+04
     .201584000000D+06 -.227242708206D-06 -.795623796925D-01 -.298023223877D-07
     .965950273649D+00  .213406250000D+03 -.206685701641D+01 -.824070040111D-08
    -.399302346831D-09  .100000000000D+01  .151400000000D+04  .000000000000D+00
     .240000000000D+01  .000000000000D+00 -.102445483208D-07  .110000000000D+02
     .201456000000D+06  .400000000000D+01
 2 09  1 13  9 59 44.0  .161868054420D-03 -.181898940355D-11  .000000000000D+00
     .120000000000D+02  .137187500000D+02  .555951729050D-08  .756782638737D+00
     .601634383202D-06  .889851793181D-02  .453926622868D-05  .515359042740D+04
     .208784000000D+06  .184401869774D-06  .197395687173D+01 -.428408384323D-07
     .941549440845D+00  .281500000000D+03  .269932710295D+01 -.866571810480D-08
     .525021869268D-10  .100000000000D+01  .151400000000D+04  .000000000000D+00
     .240000000000D+01  .000000000000D+00 -.172294676304D-07  .120000000000D+02
     .201606000000D+06  .400000000000D+01
 5 09  1 13  9 59 44.0 -.536953564733D-03 -.584350345889D-10  .000000000000D+00
     .260000000000D+02 -.137968750000D+03  .480698594455D-08 -.309184444195D+01
    -.705383718014D-05  .937894242816D-02  .700913369656D-05  .515364421844D+04
     .208784000000D+06  .128522515297D-06 -.203354820625D+00 -.128522515297D-06
     .945208172629D+00  .233312500000D+03  .129443169309D+01 -.818426947910D-08
    -.272868508926D-09  .100000000000D+01  .151400000000D+04  .000000000000D+00
     .240000000000D+01  .000000000000D+00 -.419095158577D-08  .260000000000D+02
     .201606000000D+06  .400000000000D+01
16 09  1 13  9 59 44.0  .823265872896D-04 -.261479726760D-11  .000000000000D+00
     .160000000000D+02 -.127937500000D+03  .431839416416D-08  .290495183408D+01
    -.655278563499D-05  .495874218177D-02  .909343361855D-05  .515374898911D+04
     .208784000000D+06 -.912696123123D-07 -.879857815324D-01  .104308128357D-06
     .967763515258D+00  .208031250000D+03 -.386205197122D+00 -.792425864861D-08
    -.292512184307D-09  .100000000000D+01  .151400000000D+04  .000000000000D+00
     .240000000000D+01  .000000000000D+00 -.977888703346D-08  .160000000000D+02
     .201606000000D+06  .400000000000D+01
